[{"OBJECT_NAME":"CARTOSAT-2D","OBJECT_ID":"2017-008A","EPOCH":"2026-04-25T20:43:16.728384","MEAN_MOTION":15.19262469,"ECCENTRICITY":0.0005762,"INCLINATION":97.4145,"RA_OF_ASC_NODE":176.1327,"ARG_OF_PERICENTER":72.5171,"MEAN_ANOMALY":287.6693,"EPHEMERIS_TYPE":0,"CLASSIFICATION_TYPE":"U","NORAD_CAT_ID":41948,"ELEMENT_SET_NO":999,"REV_AT_EPOCH":50963,"BSTAR":0.0001283,"MEAN_MOTION_DOT":2.638e-5,"MEAN_MOTION_DDOT":0},{"OBJECT_NAME":"SENTINEL-2B","OBJECT_ID":"2017-013A","EPOCH":"2026-04-25T19:54:58.303872","MEAN_MOTION":14.30813456,"ECCENTRICITY":0.0001235,"INCLINATION":98.5646,"RA_OF_ASC_NODE":191.3461,"ARG_OF_PERICENTER":89.7799,"MEAN_ANOMALY":270.3525,"EPHEMERIS_TYPE":0,"CLASSIFICATION_TYPE":"U","NORAD_CAT_ID":42063,"ELEMENT_SET_NO":999,"REV_AT_EPOCH":47715,"BSTAR":1.5079e-5,"MEAN_MOTION_DOT":-4.0e-8,"MEAN_MOTION_DDOT":0},{"OBJECT_NAME":"CARTOSAT-2E","OBJECT_ID":"2017-036C","EPOCH":"2026-04-25T19:33:04.271328","MEAN_MOTION":15.19300539,"ECCENTRICITY":0.0004314,"INCLINATION":97.4313,"RA_OF_ASC_NODE":176.4674,"ARG_OF_PERICENTER":123.1784,"MEAN_ANOMALY":236.9865,"EPHEMERIS_TYPE":0,"CLASSIFICATION_TYPE":"U","NORAD_CAT_ID":42767,"ELEMENT_SET_NO":999,"REV_AT_EPOCH":49019,"BSTAR":1.1431e-5,"MEAN_MOTION_DOT":1.74e-6,"MEAN_MOTION_DDOT":0},{"OBJECT_NAME":"FORMOSAT-5","OBJECT_ID":"2017-049A","EPOCH":"2026-04-25T18:40:41.363328","MEAN_MOTION":14.50877291,"ECCENTRICITY":0.0010319,"INCLINATION":98.226,"RA_OF_ASC_NODE":192.2499,"ARG_OF_PERICENTER":240.5331,"MEAN_ANOMALY":119.4835,"EPHEMERIS_TYPE":0,"CLASSIFICATION_TYPE":"U","NORAD_CAT_ID":42920,"ELEMENT_SET_NO":999,"REV_AT_EPOCH":45907,"BSTAR":4.3284e-5,"MEAN_MOTION_DOT":1.27e-6,"MEAN_MOTION_DDOT":0},{"OBJECT_NAME":"SENTINEL-5P","OBJECT_ID":"2017-064A","EPOCH":"2026-04-25T19:56:04.790400","MEAN_MOTION":14.19509761,"ECCENTRICITY":0.0001255,"INCLINATION":98.794,"RA_OF_ASC_NODE":58.3384,"ARG_OF_PERICENTER":81.7214,"MEAN_ANOMALY":278.4104,"EPHEMERIS_TYPE":0,"CLASSIFICATION_TYPE":"U","NORAD_CAT_ID":42969,"ELEMENT_SET_NO":999,"REV_AT_EPOCH":44213,"BSTAR":4.1702e-5,"MEAN_MOTION_DOT":4.4e-7,"MEAN_MOTION_DDOT":0},{"OBJECT_NAME":"SKYSAT-C11","OBJECT_ID":"2017-068A","EPOCH":"2026-04-25T20:31:05.157120","MEAN_MOTION":15.55171984,"ECCENTRICITY":0.0001516,"INCLINATION":97.4284,"RA_OF_ASC_NODE":262.5396,"ARG_OF_PERICENTER":141.8945,"MEAN_ANOMALY":218.2416,"EPHEMERIS_TYPE":0,"CLASSIFICATION_TYPE":"U","NORAD_CAT_ID":42987,"ELEMENT_SET_NO":999,"REV_AT_EPOCH":47510,"BSTAR":0.00044135,"MEAN_MOTION_DOT":0.0002974,"MEAN_MOTION_DDOT":0},{"OBJECT_NAME":"SKYSAT-C10","OBJECT_ID":"2017-068B","EPOCH":"2026-04-25T20:27:13.502304","MEAN_MOTION":15.33701216,"ECCENTRICITY":0.0001626,"INCLINATION":97.4423,"RA_OF_ASC_NODE":252.251,"ARG_OF_PERICENTER":110.6604,"MEAN_ANOMALY":249.4813,"EPHEMERIS_TYPE":0,"CLASSIFICATION_TYPE":"U","NORAD_CAT_ID":42988,"ELEMENT_SET_NO":999,"REV_AT_EPOCH":47433,"BSTAR":0.00035425,"MEAN_MOTION_DOT":0.00011469,"MEAN_MOTION_DDOT":0},{"OBJECT_NAME":"SKYSAT-C9","OBJECT_ID":"2017-068C","EPOCH":"2026-04-25T19:59:12.998112","MEAN_MOTION":15.4025733,"ECCENTRICITY":0.0007625,"INCLINATION":97.4345,"RA_OF_ASC_NODE":252.6812,"ARG_OF_PERICENTER":332.2172,"MEAN_ANOMALY":27.8666,"EPHEMERIS_TYPE":0,"CLASSIFICATION_TYPE":"U","NORAD_CAT_ID":42989,"ELEMENT_SET_NO":999,"REV_AT_EPOCH":47469,"BSTAR":0.00035782,"MEAN_MOTION_DOT":0.00014334,"MEAN_MOTION_DDOT":0},{"OBJECT_NAME":"SKYSAT-C8","OBJECT_ID":"2017-068D","EPOCH":"2026-04-25T20:03:29.777184","MEAN_MOTION":15.35910651,"ECCENTRICITY":0.000117,"INCLINATION":97.4439,"RA_OF_ASC_NODE":251.8396,"ARG_OF_PERICENTER":111.5117,"MEAN_ANOMALY":248.6251,"EPHEMERIS_TYPE":0,"CLASSIFICATION_TYPE":"U","NORAD_CAT_ID":42990,"ELEMENT_SET_NO":999,"REV_AT_EPOCH":47427,"BSTAR":0.00036407,"MEAN_MOTION_DOT":0.0001265,"MEAN_MOTION_DDOT":0},{"OBJECT_NAME":"SKYSAT-C7","OBJECT_ID":"2017-068E","EPOCH":"2026-04-25T19:51:26.917632","MEAN_MOTION":15.35852589,"ECCENTRICITY":0.0004707,"INCLINATION":97.4452,"RA_OF_ASC_NODE":252.8175,"ARG_OF_PERICENTER":298.1347,"MEAN_ANOMALY":61.9421,"EPHEMERIS_TYPE":0,"CLASSIFICATION_TYPE":"U","NORAD_CAT_ID":42991,"ELEMENT_SET_NO":999,"REV_AT_EPOCH":47433,"BSTAR":0.00035687,"MEAN_MOTION_DOT":0.00012378,"MEAN_MOTION_DDOT":0},{"OBJECT_NAME":"SKYSAT-C6","OBJECT_ID":"2017-068F","EPOCH":"2026-04-25T19:53:14.635104","MEAN_MOTION":15.33516917,"ECCENTRICITY":0.0001843,"INCLINATION":97.4485,"RA_OF_ASC_NODE":252.9608,"ARG_OF_PERICENTER":4.1725,"MEAN_ANOMALY":355.9532,"EPHEMERIS_TYPE":0,"CLASSIFICATION_TYPE":"U","NORAD_CAT_ID":42992,"ELEMENT_SET_NO":999,"REV_AT_EPOCH":47429,"BSTAR":0.00034371,"MEAN_MOTION_DOT":0.0001106,"MEAN_MOTION_DDOT":0},{"OBJECT_NAME":"CARTOSAT-2F","OBJECT_ID":"2018-004A","EPOCH":"2026-04-25T20:18:47.975040","MEAN_MOTION":15.19267606,"ECCENTRICITY":0.0002385,"INCLINATION":97.4071,"RA_OF_ASC_NODE":176.1307,"ARG_OF_PERICENTER":95.0023,"MEAN_ANOMALY":265.1484,"EPHEMERIS_TYPE":0,"CLASSIFICATION_TYPE":"U","NORAD_CAT_ID":43111,"ELEMENT_SET_NO":999,"REV_AT_EPOCH":45938,"BSTAR":0.00018997,"MEAN_MOTION_DOT":3.938e-5,"MEAN_MOTION_DDOT":0},{"OBJECT_NAME":"GAOFEN-1 02","OBJECT_ID":"2018-031A","EPOCH":"2026-04-25T20:15:22.178016","MEAN_MOTION":14.76440589,"ECCENTRICITY":0.0003378,"INCLINATION":98.0558,"RA_OF_ASC_NODE":178.5066,"ARG_OF_PERICENTER":151.8851,"MEAN_ANOMALY":208.2541,"EPHEMERIS_TYPE":0,"CLASSIFICATION_TYPE":"U","NORAD_CAT_ID":43259,"ELEMENT_SET_NO":999,"REV_AT_EPOCH":43497,"BSTAR":1.5365e-5,"MEAN_MOTION_DOT":5.5e-7,"MEAN_MOTION_DDOT":0},{"OBJECT_NAME":"GAOFEN-1 03","OBJECT_ID":"2018-031B","EPOCH":"2026-04-25T19:43:52.647168","MEAN_MOTION":14.76429874,"ECCENTRICITY":0.0001468,"INCLINATION":98.0558,"RA_OF_ASC_NODE":178.3489,"ARG_OF_PERICENTER":210.9253,"MEAN_ANOMALY":149.187,"EPHEMERIS_TYPE":0,"CLASSIFICATION_TYPE":"U","NORAD_CAT_ID":43260,"ELEMENT_SET_NO":999,"REV_AT_EPOCH":43496,"BSTAR":9.6191e-5,"MEAN_MOTION_DOT":6.17e-6,"MEAN_MOTION_DDOT":0},{"OBJECT_NAME":"GAOFEN-1 04","OBJECT_ID":"2018-031D","EPOCH":"2026-04-25T20:46:25.053600","MEAN_MOTION":14.76463376,"ECCENTRICITY":6.78e-5,"INCLINATION":98.0559,"RA_OF_ASC_NODE":178.5767,"ARG_OF_PERICENTER":93.4793,"MEAN_ANOMALY":266.6494,"EPHEMERIS_TYPE":0,"CLASSIFICATION_TYPE":"U","NORAD_CAT_ID":43262,"ELEMENT_SET_NO":999,"REV_AT_EPOCH":43496,"BSTAR":7.5884e-5,"MEAN_MOTION_DOT":4.77e-6,"MEAN_MOTION_DDOT":0},{"OBJECT_NAME":"SENTINEL-3B","OBJECT_ID":"2018-039A","EPOCH":"2026-04-25T19:15:52.220736","MEAN_MOTION":14.26733476,"ECCENTRICITY":0.0001654,"INCLINATION":98.6271,"RA_OF_ASC_NODE":184.0794,"ARG_OF_PERICENTER":93.328,"MEAN_ANOMALY":266.809,"EPHEMERIS_TYPE":0,"CLASSIFICATION_TYPE":"U","NORAD_CAT_ID":43437,"ELEMENT_SET_NO":999,"REV_AT_EPOCH":41665,"BSTAR":5.8728e-5,"MEAN_MOTION_DOT":9.8e-7,"MEAN_MOTION_DDOT":0},{"OBJECT_NAME":"GAOFEN-5 01","OBJECT_ID":"2018-043A","EPOCH":"2026-04-25T20:38:34.534752","MEAN_MOTION":14.60567555,"ECCENTRICITY":8.18e-5,"INCLINATION":98.4535,"RA_OF_ASC_NODE":86.3608,"ARG_OF_PERICENTER":200.0629,"MEAN_ANOMALY":160.0539,"EPHEMERIS_TYPE":0,"CLASSIFICATION_TYPE":"U","NORAD_CAT_ID":43461,"ELEMENT_SET_NO":999,"REV_AT_EPOCH":42405,"BSTAR":8.9179e-5,"MEAN_MOTION_DOT":3.84e-6,"MEAN_MOTION_DDOT":0}]
